ONEWEB-0273             
1 48991U 21060AA  24079.89196499  .00000001  00000+0 -32119-4 0  9998
2 48991  87.9121  31.8291 0001680  76.0924 284.0393 13.16594179133088
ONEWEB-0274             
1 48992U 21060AB  24080.37328223 -.00000003  00000+0 -41381-4 0  9990
2 48992  87.9132  31.7406 0002253  68.9761 291.1611 13.16594707133184
ONEWEB-0275             
1 48993U 21060AC  24079.90621430  .00000028  00000+0  39386-4 0  9991
2 48993  87.9118  31.8225 0001710  76.3934 283.7387 13.16594122133044
ONEWEB-0276             
1 48994U 21060AD  24079.93946501  .00000137  00000+0  32521-3 0  9998
2 48994  87.9122  31.8120 0001578  75.3516 284.7790 13.16595005133074
ONEWEB-0277             
1 48995U 21060AE  24079.87613138  .00000011  00000+0 -48969-5 0  9996
2 48995  87.9121  31.8629 0001596  66.0395 294.0903 13.16594434133042
ONEWEB-0278             
1 48996U 21060AF  24080.39860984  .00000051  00000+0  10106-3 0  9992
2 48996  87.9123  31.7177 0001865  93.8324 266.3020 13.16595136133267
ONEWEB-0279             
1 48997U 21060AG  24080.40652113  .00000126  00000+0  29563-3 0  9998
2 48997  87.9123  31.7141 0001703  69.2086 290.9227 13.16596176133180
ONEWEB-0280             
1 48998U 21060AH  24079.88879231 -.00000013  00000+0 -67040-4 0  9991
2 48998  87.9125  31.8177 0001729  59.5794 300.5508 13.16593966133048
